2024-016E               
1 58824U 24016E   24030.95128154  .00075892  36535-5  58270-3 0  9997
2 58824  97.6679 107.8138 0188617 356.9683   3.0408 15.52116983  1199
2024-016F               
1 58825U 24016F   24029.59385983  .00016521  00000+0  98348-3 0  9997
2 58825  97.5226 105.8259 0013563 261.3113 232.7043 15.11221144   896
AAC-AIS-SAT3            
1 58848U 24174DH  24030.91379629  .00005172  00000+0  35775-3 0  9990
2 58848  97.4508 106.6908 0014466 122.9491 237.3130 15.06040894 12714
2024-018A               
1 58849U 24018A   24031.46726165  .00001541  00000+0  19698-3 0  9992
2 58849  58.6902  15.8239 0458721 166.1718 195.2380 14.32734017   506
2024-018B               
1 58850U 24018B   24031.46561194  .00002618  00000+0  31391-3 0  9993
2 58850  58.6990  15.8167 0455649 166.6516 194.7054 14.33414005   495
2024-018C               
1 58851U 24018C   24031.46420624  .00000486  00000+0  80920-4 0  9990
2 58851  58.6874  15.8122 0452907 166.0716 195.3303 14.33987780   509
2024-018D               
1 58852U 24018D   24031.46458735  .00005061  00000+0  57884-3 0  9991
2 58852  58.6775  15.8124 0453764 165.6315 195.8128 14.33860810   508
CYGNUS NG-20            
1 58898U 24021A   24031.16594047 -.00003708  11723-4  00000+0 0  9999
2 58898  51.6653 279.5913 0011503  10.0447 116.1181 16.15013101    73
